[
    {
        "OBJECT_NAME": "COSMOS 2501 (702K)",
        "OBJECT_ID": "2014-075A",
        "EPOCH": "2025-11-15T07:38:38.424192",
        "MEAN_MOTION": 2.13101415,
        "ECCENTRICITY": 0.00203412,
        "INCLINATION": 63.6133,
        "RA_OF_ASC_NODE": 197.7749,
        "ARG_OF_PERICENTER": 205.8353,
        "MEAN_ANOMALY": 154.142,
        "EPHEMERIS_TYPE": 0,
        "CLASSIFICATION_TYPE": "U",
        "NORAD_CAT_ID": 40315,
        "ELEMENT_SET_NO": 999,
        "REV_AT_EPOCH": 8529,
        "BSTAR": 0,
        "MEAN_MOTION_DOT": 2.8e-7,
        "MEAN_MOTION_DDOT": 0
    },
    {
        "OBJECT_NAME": "COSMOS 2514 (751)",
        "OBJECT_ID": "2016-008A",
        "EPOCH": "2025-11-18T02:49:56.343072",
        "MEAN_MOTION": 2.1310269,
        "ECCENTRICITY": 0.0012939,
        "INCLINATION": 65.1475,
        "RA_OF_ASC_NODE": 320.2475,
        "ARG_OF_PERICENTER": 219.029,
        "MEAN_ANOMALY": 140.8977,
        "EPHEMERIS_TYPE": 0,
        "CLASSIFICATION_TYPE": "U",
        "NORAD_CAT_ID": 41330,
        "ELEMENT_SET_NO": 999,
        "REV_AT_EPOCH": 7612,
        "BSTAR": 0,
        "MEAN_MOTION_DOT": -4.9e-7,
        "MEAN_MOTION_DDOT": 0
    },
    {
        "OBJECT_NAME": "COSMOS 2522 (752)",
        "OBJECT_ID": "2017-055A",
        "EPOCH": "2025-11-17T22:57:19.077984",
        "MEAN_MOTION": 2.1310203,
        "ECCENTRICITY": 0.0006902,
        "INCLINATION": 64.0753,
        "RA_OF_ASC_NODE": 199.0732,
        "ARG_OF_PERICENTER": 228.7385,
        "MEAN_ANOMALY": 131.2926,
        "EPHEMERIS_TYPE": 0,
        "CLASSIFICATION_TYPE": "U",
        "NORAD_CAT_ID": 42939,
        "ELEMENT_SET_NO": 999,
        "REV_AT_EPOCH": 6347,
        "BSTAR": 0,
        "MEAN_MOTION_DOT": 6.0e-7,
        "MEAN_MOTION_DDOT": 0
    },
    {
        "OBJECT_NAME": "COSMOS 2527 (756)",
        "OBJECT_ID": "2018-053A",
        "EPOCH": "2025-11-17T22:00:36.938880",
        "MEAN_MOTION": 2.13102227,
        "ECCENTRICITY": 0.0008358,
        "INCLINATION": 65.4597,
        "RA_OF_ASC_NODE": 80.9612,
        "ARG_OF_PERICENTER": 220.2318,
        "MEAN_ANOMALY": 139.6873,
        "EPHEMERIS_TYPE": 0,
        "CLASSIFICATION_TYPE": "U",
        "NORAD_CAT_ID": 43508,
        "ELEMENT_SET_NO": 999,
        "REV_AT_EPOCH": 5777,
        "BSTAR": 0,
        "MEAN_MOTION_DOT": -2.9e-7,
        "MEAN_MOTION_DDOT": 0
    },
    {
        "OBJECT_NAME": "COSMOS 2529 (757)",
        "OBJECT_ID": "2018-086A",
        "EPOCH": "2025-11-18T00:21:07.386048",
        "MEAN_MOTION": 2.13102027,
        "ECCENTRICITY": 0.000779,
        "INCLINATION": 64.2914,
        "RA_OF_ASC_NODE": 199.7239,
        "ARG_OF_PERICENTER": 255.4236,
        "MEAN_ANOMALY": 104.5803,
        "EPHEMERIS_TYPE": 0,
        "CLASSIFICATION_TYPE": "U",
        "NORAD_CAT_ID": 43687,
        "ELEMENT_SET_NO": 999,
        "REV_AT_EPOCH": 5478,
        "BSTAR": 0,
        "MEAN_MOTION_DOT": 6.0e-7,
        "MEAN_MOTION_DDOT": 0
    },
    {
        "OBJECT_NAME": "COSMOS 2534 (758)",
        "OBJECT_ID": "2019-030A",
        "EPOCH": "2025-11-17T01:51:53.247168",
        "MEAN_MOTION": 2.13102216,
        "ECCENTRICITY": 0.0009563,
        "INCLINATION": 64.3646,
        "RA_OF_ASC_NODE": 199.7577,
        "ARG_OF_PERICENTER": 282.7086,
        "MEAN_ANOMALY": 212.893,
        "EPHEMERIS_TYPE": 0,
        "CLASSIFICATION_TYPE": "U",
        "NORAD_CAT_ID": 44299,
        "ELEMENT_SET_NO": 999,
        "REV_AT_EPOCH": 5040,
        "BSTAR": 0,
        "MEAN_MOTION_DOT": 4.9e-7,
        "MEAN_MOTION_DDOT": 0
    },
    {
        "OBJECT_NAME": "COSMOS 2544 (759)",
        "OBJECT_ID": "2019-088A",
        "EPOCH": "2025-11-17T09:25:00.379200",
        "MEAN_MOTION": 2.13101948,
        "ECCENTRICITY": 0.00131346,
        "INCLINATION": 65.447,
        "RA_OF_ASC_NODE": 80.806,
        "ARG_OF_PERICENTER": 247.1737,
        "MEAN_ANOMALY": 112.6691,
        "EPHEMERIS_TYPE": 0,
        "CLASSIFICATION_TYPE": "U",
        "NORAD_CAT_ID": 44850,
        "ELEMENT_SET_NO": 999,
        "REV_AT_EPOCH": 4620,
        "BSTAR": 0,
        "MEAN_MOTION_DOT": -2.8e-7,
        "MEAN_MOTION_DDOT": 0
    },
    {
        "OBJECT_NAME": "COSMOS 2545 (760)",
        "OBJECT_ID": "2020-018A",
        "EPOCH": "2025-11-18T01:22:52.675104",
        "MEAN_MOTION": 2.13102595,
        "ECCENTRICITY": 0.0012208,
        "INCLINATION": 64.4839,
        "RA_OF_ASC_NODE": 319.8357,
        "ARG_OF_PERICENTER": 246.5441,
        "MEAN_ANOMALY": 113.3468,
        "EPHEMERIS_TYPE": 0,
        "CLASSIFICATION_TYPE": "U",
        "NORAD_CAT_ID": 45358,
        "ELEMENT_SET_NO": 999,
        "REV_AT_EPOCH": 4416,
        "BSTAR": 0,
        "MEAN_MOTION_DOT": -5.0e-7,
        "MEAN_MOTION_DDOT": 0
    },
    {
        "OBJECT_NAME": "COSMOS 2547 (705K)",
        "OBJECT_ID": "2020-075A",
        "EPOCH": "2025-11-17T18:37:38.780256",
        "MEAN_MOTION": 2.13099956,
        "ECCENTRICITY": 0.0006518,
        "INCLINATION": 64.5953,
        "RA_OF_ASC_NODE": 199.5301,
        "ARG_OF_PERICENTER": 231.0229,
        "MEAN_ANOMALY": 129.0084,
        "EPHEMERIS_TYPE": 0,
        "CLASSIFICATION_TYPE": "U",
        "NORAD_CAT_ID": 46805,
        "ELEMENT_SET_NO": 999,
        "REV_AT_EPOCH": 3940,
        "BSTAR": 0,
        "MEAN_MOTION_DOT": 5.8e-7,
        "MEAN_MOTION_DDOT": 0
    },
    {
        "OBJECT_NAME": "COSMOS 2557 (706K)",
        "OBJECT_ID": "2022-075A",
        "EPOCH": "2025-11-17T11:20:09.263616",
        "MEAN_MOTION": 2.13102052,
        "ECCENTRICITY": 0.00138017,
        "INCLINATION": 64.4235,
        "RA_OF_ASC_NODE": 321.9402,
        "ARG_OF_PERICENTER": 275.0008,
        "MEAN_ANOMALY": 84.8657,
        "EPHEMERIS_TYPE": 0,
        "CLASSIFICATION_TYPE": "U",
        "NORAD_CAT_ID": 52984,
        "ELEMENT_SET_NO": 999,
        "REV_AT_EPOCH": 2620,
        "BSTAR": 0,
        "MEAN_MOTION_DOT": -5.0e-7,
        "MEAN_MOTION_DDOT": 0
    },
    {
        "OBJECT_NAME": "COSMOS 2559 (707K)",
        "OBJECT_ID": "2022-130A",
        "EPOCH": "2025-11-17T06:59:40.758144",
        "MEAN_MOTION": 2.13101506,
        "ECCENTRICITY": 0.00124566,
        "INCLINATION": 64.3956,
        "RA_OF_ASC_NODE": 322.0371,
        "ARG_OF_PERICENTER": 192.7783,
        "MEAN_ANOMALY": 167.2149,
        "EPHEMERIS_TYPE": 0,
        "CLASSIFICATION_TYPE": "U",
        "NORAD_CAT_ID": 54031,
        "ELEMENT_SET_NO": 999,
        "REV_AT_EPOCH": 2417,
        "BSTAR": 0,
        "MEAN_MOTION_DOT": -4.9e-7,
        "MEAN_MOTION_DDOT": 0
    },
    {
        "OBJECT_NAME": "COSMOS 2564 (761)",
        "OBJECT_ID": "2022-161A",
        "EPOCH": "2025-11-18T01:46:58.122912",
        "MEAN_MOTION": 2.13102104,
        "ECCENTRICITY": 0.0008968,
        "INCLINATION": 64.7372,
        "RA_OF_ASC_NODE": 199.7182,
        "ARG_OF_PERICENTER": 208.9842,
        "MEAN_ANOMALY": 151.0565,
        "EPHEMERIS_TYPE": 0,
        "CLASSIFICATION_TYPE": "U",
        "NORAD_CAT_ID": 54377,
        "ELEMENT_SET_NO": 999,
        "REV_AT_EPOCH": 2313,
        "BSTAR": 0,
        "MEAN_MOTION_DOT": 6.0e-7,
        "MEAN_MOTION_DDOT": 0
    },
    {
        "OBJECT_NAME": "COSMOS 2569 (703K)",
        "OBJECT_ID": "2023-114A",
        "EPOCH": "2025-11-16T05:03:28.994400",
        "MEAN_MOTION": 2.13103933,
        "ECCENTRICITY": 0.00095088,
        "INCLINATION": 65.1805,
        "RA_OF_ASC_NODE": 79.8098,
        "ARG_OF_PERICENTER": 287.3231,
        "MEAN_ANOMALY": 72.557,
        "EPHEMERIS_TYPE": 0,
        "CLASSIFICATION_TYPE": "U",
        "NORAD_CAT_ID": 57517,
        "ELEMENT_SET_NO": 999,
        "REV_AT_EPOCH": 1772,
        "BSTAR": 0,
        "MEAN_MOTION_DOT": -2.4e-7,
        "MEAN_MOTION_DDOT": 0
    }
]